STARLINK-2046_new
1 17354C 21005F   21326.07638053  .00005516  00000-0  36950-3 0  3264
2 17354  53.0535 228.4077 0001925  67.6881  14.0397 15.06403007    10
STARLINK-2046_old
1 27354C 21005F   21325.16054826  .00009436  00000-0  63223-3 0  3250
2 27354  53.0537 232.5190 0001851  67.1403  85.2468 15.06388498    12
